SHIYAN-1 (SY-1)         
1 28220U 04012A   26068.73650539  .00016393  00000+0  54854-3 0  9991
2 28220  97.8764 140.5238 0005873  23.6952 336.4557 15.31043463195862
STARLINK-32873          
1 62857U 25022D   26068.41022985  .00010585  00000+0  36901-3 0  9992
2 62857  53.1591 131.1802 0001355  93.2123 266.9033 15.30199058 61854
